[{"OBJECT_NAME":"ONEWEB-0136","OBJECT_ID":"2020-100AA","EPOCH":"2026-03-09T20:30:33.450912","MEAN_MOTION":13.12443913,"ECCENTRICITY":0.00020405,"INCLINATION":87.9001,"RA_OF_ASC_NODE":10.3638,"ARG_OF_PERICENTER":86.1247,"MEAN_ANOMALY":274.0115,"EPHEMERIS_TYPE":0,"CLASSIFICATION_TYPE":"U","NORAD_CAT_ID":47282,"ELEMENT_SET_NO":999,"REV_AT_EPOCH":25163,"BSTAR":-0.00065518532,"MEAN_MOTION_DOT":-2.23e-6,"MEAN_MOTION_DDOT":0},{"OBJECT_NAME":"CZ-4C DEB","OBJECT_ID":"2013-065C","EPOCH":"2026-03-09T03:10:28.242048","MEAN_MOTION":13.17691788,"ECCENTRICITY":0.013391,"INCLINATION":100.5765,"RA_OF_ASC_NODE":190.4454,"ARG_OF_PERICENTER":128.5564,"MEAN_ANOMALY":232.7637,"EPHEMERIS_TYPE":0,"CLASSIFICATION_TYPE":"U","NORAD_CAT_ID":43412,"ELEMENT_SET_NO":999,"REV_AT_EPOCH":58314,"BSTAR":0.00030994223,"MEAN_MOTION_DOT":8.1e-7,"MEAN_MOTION_DDOT":0}]
